{
  "type": "FeatureCollection",
  "features": [
    {
      "type": "Feature",
      "properties": {
        "norad_id": 2807,
        "name": "OPS 7218 (TRANSIT 16)",
        "group": "nnss",
        "lat": 71.46783749635414,
        "lon": 173.19007730344075,
        "alt_km": 1047.3719827516989,
        "timestamp": "2025-12-08T05:48:09.303009+00:00",
        "meta_object_name": "OPS 7218 (TRANSIT 16)",
        "meta_object_id": "1967-048A",
        "meta_epoch": "2025-12-07T22:22:47.201664",
        "meta_mean_motion": 13.5072089,
        "meta_eccentricity": 0.00217446,
        "meta_inclination": 89.6732,
        "meta_ra_of_asc_node": 354.1758,
        "meta_arg_of_pericenter": 126.9923,
        "meta_mean_anomaly": 278.5532,
        "meta_ephemeris_type": 0,
        "meta_classification_type": "U",
        "meta_norad_cat_id": 2807,
        "meta_element_set_no": 999,
        "meta_rev_at_epoch": 88211,
        "meta_bstar": 0.00022584266,
        "meta_mean_motion_dot": 1.56e-06,
        "meta_mean_motion_ddot": 0,
        "tle_line1": "1 02807U 67048A   25341.93249076  .00000156  00000+0  22584-3 0  9992",
        "tle_line2": "2 02807  89.6732 354.1758 0021744 126.9923 278.5532 13.50720890882114"
      },
      "geometry": {
        "type": "Point",
        "coordinates": [
          173.19007730344075,
          71.46783749635414
        ]
      }
    },
    {
      "type": "Feature",
      "properties": {
        "norad_id": 2965,
        "name": "OPS 4947 (TRANSIT 17)",
        "group": "nnss",
        "lat": 51.49722585352919,
        "lon": -156.1646517907171,
        "alt_km": 1071.628965408804,
        "timestamp": "2025-12-08T05:48:09.303031+00:00",
        "meta_object_name": "OPS 4947 (TRANSIT 17)",
        "meta_object_id": "1967-092A",
        "meta_epoch": "2025-12-07T21:09:13.300416",
        "meta_mean_motion": 13.53451787,
        "meta_eccentricity": 0.00459171,
        "meta_inclination": 89.25,
        "meta_ra_of_asc_node": 24.8062,
        "meta_arg_of_pericenter": 249.072,
        "meta_mean_anomaly": 284.9855,
        "meta_ephemeris_type": 0,
        "meta_classification_type": "U",
        "meta_norad_cat_id": 2965,
        "meta_element_set_no": 999,
        "meta_rev_at_epoch": 87031,
        "meta_bstar": 0.000273568,
        "meta_mean_motion_dot": 1.96e-06,
        "meta_mean_motion_ddot": 0,
        "tle_line1": "1 02965U 67092A   25341.88140394  .00000196  00000+0  27357-3 0  9990",
        "tle_line2": "2 02965  89.2500  24.8062 0045917 249.0720 284.9855 13.53451787870314"
      },
      "geometry": {
        "type": "Point",
        "coordinates": [
          -156.1646517907171,
          51.49722585352919
        ]
      }
    },
    {
      "type": "Feature",
      "properties": {
        "norad_id": 3133,
        "name": "OPS 7034 (TRANSIT 18)",
        "group": "nnss",
        "lat": -50.79296518421049,
        "lon": -86.34011057752747,
        "alt_km": 1106.1783875555493,
        "timestamp": "2025-12-08T05:48:09.303044+00:00",
        "meta_object_name": "OPS 7034 (TRANSIT 18)",
        "meta_object_id": "1968-012A",
        "meta_epoch": "2025-12-07T21:31:08.051808",
        "meta_mean_motion": 13.51563999,
        "meta_eccentricity": 0.00733862,
        "meta_inclination": 90.0275,
        "meta_ra_of_asc_node": 273.6252,
        "meta_arg_of_pericenter": 183.2093,
        "meta_mean_anomaly": 247.0145,
        "meta_ephemeris_type": 0,
        "meta_classification_type": "U",
        "meta_norad_cat_id": 3133,
        "meta_element_set_no": 999,
        "meta_rev_at_epoch": 56853,
        "meta_bstar": 0.00026139731,
        "meta_mean_motion_dot": 1.83e-06,
        "meta_mean_motion_ddot": 0,
        "tle_line1": "1 03133U 68012A   25341.89662097  .00000183  00000+0  26140-3 0  9996",
        "tle_line2": "2 03133  90.0275 273.6252 0073386 183.2093 247.0145 13.51563999568536"
      },
      "geometry": {
        "type": "Point",
        "coordinates": [
          -86.34011057752747,
          -50.79296518421049
        ]
      }
    },
    {
      "type": "Feature",
      "properties": {
        "norad_id": 4507,
        "name": "NNSS 19 (TRANSIT 19)",
        "group": "nnss",
        "lat": -76.65514010681552,
        "lon": -125.44487053290099,
        "alt_km": 957.5530301427125,
        "timestamp": "2025-12-08T05:48:09.303056+00:00",
        "meta_object_name": "NNSS 19 (TRANSIT 19)",
        "meta_object_id": "1970-067A",
        "meta_epoch": "2025-12-07T23:03:41.706432",
        "meta_mean_motion": 13.51313185,
        "meta_eccentricity": 0.01708532,
        "meta_inclination": 90.0058,
        "meta_ra_of_asc_node": 234.5305,
        "meta_arg_of_pericenter": 307.3368,
        "meta_mean_anomaly": 51.2321,
        "meta_ephemeris_type": 0,
        "meta_classification_type": "U",
        "meta_norad_cat_id": 4507,
        "meta_element_set_no": 999,
        "meta_rev_at_epoch": 72157,
        "meta_bstar": 0.00030634417,
        "meta_mean_motion_dot": 2.25e-06,
        "meta_mean_motion_ddot": 0,
        "tle_line1": "1 04507U 70067A   25341.96089938  .00000225  00000+0  30634-3 0  9990",
        "tle_line2": "2 04507  90.0058 234.5305 0170853 307.3368  51.2321 13.51313185721573"
      },
      "geometry": {
        "type": "Point",
        "coordinates": [
          -125.44487053290099,
          -76.65514010681552
        ]
      }
    },
    {
      "type": "Feature",
      "properties": {
        "norad_id": 6909,
        "name": "NNSS 20 (TRANSIT 20)",
        "group": "nnss",
        "lat": 29.811450299220883,
        "lon": -104.79597975136372,
        "alt_km": 936.8311977999028,
        "timestamp": "2025-12-08T05:48:09.303066+00:00",
        "meta_object_name": "NNSS 20 (TRANSIT 20)",
        "meta_object_id": "1973-081A",
        "meta_epoch": "2025-12-07T19:09:08.609184",
        "meta_mean_motion": 13.71430949,
        "meta_eccentricity": 0.0156606,
        "meta_inclination": 89.8561,
        "meta_ra_of_asc_node": 255.1282,
        "meta_arg_of_pericenter": 92.9417,
        "meta_mean_anomaly": 268.9679,
        "meta_ephemeris_type": 0,
        "meta_classification_type": "U",
        "meta_norad_cat_id": 6909,
        "meta_element_set_no": 999,
        "meta_rev_at_epoch": 80293,
        "meta_bstar": 0.00037191862,
        "meta_mean_motion_dot": 3.77e-06,
        "meta_mean_motion_ddot": 0,
        "tle_line1": "1 06909U 73081A   25341.79801631  .00000377  00000+0  37192-3 0  9994",
        "tle_line2": "2 06909  89.8561 255.1282 0156606  92.9417 268.9679 13.71430949802934"
      },
      "geometry": {
        "type": "Point",
        "coordinates": [
          -104.79597975136372,
          29.811450299220883
        ]
      }
    },
    {
      "type": "Feature",
      "properties": {
        "norad_id": 10457,
        "name": "TRANSAT",
        "group": "nnss",
        "lat": -32.41246729494165,
        "lon": 78.53271695920702,
        "alt_km": 1092.8894958685523,
        "timestamp": "2025-12-08T05:48:09.303077+00:00",
        "meta_object_name": "TRANSAT",
        "meta_object_id": "1977-106A",
        "meta_epoch": "2025-12-07T19:50:55.366944",
        "meta_mean_motion": 13.48942503,
        "meta_eccentricity": 0.00249351,
        "meta_inclination": 89.6482,
        "meta_ra_of_asc_node": 78.7709,
        "meta_arg_of_pericenter": 203.921,
        "meta_mean_anomaly": 270.65,
        "meta_ephemeris_type": 0,
        "meta_classification_type": "U",
        "meta_norad_cat_id": 10457,
        "meta_element_set_no": 999,
        "meta_rev_at_epoch": 36677,
        "meta_bstar": 0.00021915571,
        "meta_mean_motion_dot": 1.47e-06,
        "meta_mean_motion_ddot": 0,
        "tle_line1": "1 10457U 77106A   25341.82702971  .00000147  00000+0  21916-3 0  9992",
        "tle_line2": "2 10457  89.6482  78.7709 0024935 203.9210 270.6500 13.48942503366772"
      },
      "geometry": {
        "type": "Point",
        "coordinates": [
          78.53271695920702,
          -32.41246729494165
        ]
      }
    },
    {
      "type": "Feature",
      "properties": {
        "norad_id": 12458,
        "name": "NOVA 1",
        "group": "nnss",
        "lat": -75.99101312904847,
        "lon": 90.85676678948542,
        "alt_km": 1191.3319139567566,
        "timestamp": "2025-12-08T05:48:09.303087+00:00",
        "meta_object_name": "NOVA 1",
        "meta_object_id": "1981-044A",
        "meta_epoch": "2025-12-07T21:43:11.372736",
        "meta_mean_motion": 13.2327777,
        "meta_eccentricity": 0.00157406,
        "meta_inclination": 89.8524,
        "meta_ra_of_asc_node": 91.4535,
        "meta_arg_of_pericenter": 115.8754,
        "meta_mean_anomaly": 4.6976,
        "meta_ephemeris_type": 0,
        "meta_classification_type": "U",
        "meta_norad_cat_id": 12458,
        "meta_element_set_no": 999,
        "meta_rev_at_epoch": 15122,
        "meta_bstar": 0.00027007074,
        "meta_mean_motion_dot": 1.23e-06,
        "meta_mean_motion_ddot": 0,
        "tle_line1": "1 12458U 81044A   25341.90499274  .00000123  00000+0  27007-3 0  9990",
        "tle_line2": "2 12458  89.8524  91.4535 0015740 115.8754   4.6976 13.23277770151225"
      },
      "geometry": {
        "type": "Point",
        "coordinates": [
          90.85676678948542,
          -75.99101312904847
        ]
      }
    }
  ]
}